OBJECT_NAME,OBJECT_ID,EPOCH,MEAN_MOTION,ECCENTRICITY,INCLINATION,RA_OF_ASC_NODE,ARG_OF_PERICENTER,MEAN_ANOMALY,EPHEMERIS_TYPE,CLASSIFICATION_TYPE,NORAD_CAT_ID,ELEMENT_SET_NO,REV_AT_EPOCH,BSTAR,MEAN_MOTION_DOT,MEAN_MOTION_DDOT
STARLINK-37938,2026-135Y,2026-07-14T22:00:03.000096,15.49156695,.00013502,97.2836,224.3267,93.8794,27.7504,0,U,69568,999,576,.12696996E-2,.69498E-3,0
STARLINK-37924,2026-135Z,2026-07-14T22:00:03.000096,15.49158837,.00015813,97.2838,224.4206,100.8419,242.8710,0,U,69569,999,576,.11845288E-2,.64797E-3,0
SHIJIAN-31 (SJ-31),2026-136A,2026-07-14T13:06:37.371168,1.92227240,.69400377,63.4872,353.2619,171.8419,212.2940,0,U,69570,999,61,0,-.447E-5,0
CZ-3B R/B,2026-136B,2026-07-13T05:10:02.915328,2.38066580,.72567332,63.4303,350.8798,171.5015,216.3709,0,U,69571,999,63,.60349431E-3,.411847E-2,.89933E-7
GUOWANG OBJECT A,2026-137A,2026-07-12T21:25:09.001056,13.89812741,.0012495,49.9997,153.0717,311.3863,48.5960,0,U,69572,999,359,.2450247E-5,-.143E-5,0
GUOWANG OBJECT B,2026-137B,2026-07-09T15:41:33.480672,13.89803849,.00118595,50.0016,165.9303,298.8434,61.1273,0,U,69573,999,315,-.55136387E-4,-.214E-5,0
GUOWANG OBJECT C,2026-137C,2026-07-12T21:19:24.187296,13.89814739,.0011896,49.9967,153.0345,311.4365,48.5511,0,U,69574,999,360,-.2748005E-4,-.18E-5,0
GUOWANG OBJECT D,2026-137D,2026-07-09T15:38:20.572800,13.89827781,.00110869,49.9953,165.9027,299.2996,60.6794,0,U,69575,999,315,-.17667174E-4,-.168E-5,0
GUOWANG OBJECT E,2026-137E,2026-07-12T00:33:49.286304,13.89824941,.00112248,50.0038,156.4799,310.0552,49.9361,0,U,69576,999,348,-.46562868E-4,-.204E-5,0
GUOWANG OBJECT F,2026-137F,2026-07-11T07:17:14.089920,13.89809360,.00108344,50.0028,159.3340,307.7048,52.2867,0,U,69577,999,338,-.46814787E-4,-.204E-5,0
GUOWANG OBJECT G,2026-137G,2026-07-11T07:16:00.337152,13.89795025,.0010806,49.9952,159.3085,307.5258,52.4657,0,U,69578,999,338,.35461E-5,-.142E-5,0
GUOWANG OBJECT H,2026-137H,2026-07-10T00:11:03.674688,13.89776278,.00102494,50.0012,164.4679,306.3680,53.6272,0,U,69579,999,320,-.23862216E-4,-.175E-5,0
GUOWANG OBJECT J,2026-137J,2026-06-27T06:41:01.268160,13.91997107,.0011832,49.9961,215.0979,257.3150,102.6427,0,U,69580,999,143,.13174E-3,.22E-6,0
CZ-12 R/B,2026-137K,2026-07-13T06:43:04.828800,14.11694334,.0077441,49.9888,147.7098,203.1402,156.6010,0,U,69581,999,369,.22245E-4,-.112E-5,0
CENTISPACE-1 GROUP 05 OBJECT A,2026-138A,2026-07-13T08:11:08.213856,14.15470945,.00113082,55.1388,184.5993,340.3719,19.6818,0,U,69582,999,372,.51929226E-4,-.52E-6,0
CENTISPACE-1 GROUP 05 OBJECT B,2026-138B,2026-07-13T11:29:39.475104,14.15650579,.00102958,55.1382,184.0587,341.1535,18.9057,0,U,69583,999,374,.4298808E-5,-.145E-5,0
CENTISPACE-1 GROUP 05 OBJECT C,2026-138C,2026-07-13T11:27:23.172192,14.15734094,.00102279,55.1387,184.0592,342.7982,17.2644,0,U,69584,999,374,-.21642051E-4,-.196E-5,0
CENTISPACE-1 GROUP 05 OBJECT D,2026-138D,2026-07-13T11:22:41.050272,14.15919525,.0009819,55.1385,184.0335,342.0163,18.0463,0,U,69585,999,374,-.74601835E-4,-.301E-5,0
CENTISPACE-1 GROUP 05 OBJECT E,2026-138E,2026-07-13T16:25:52.489056,14.15986491,.00095717,55.1377,183.2516,343.0370,17.0283,0,U,69586,999,377,-.74193315E-4,-.301E-5,0
CENTISPACE-1 GROUP 05 OBJECT F,2026-138F,2026-07-12T23:31:05.217600,14.15909909,.00094364,55.1382,185.8680,345.5018,14.5684,0,U,69587,999,367,-.69904551E-4,-.292E-5,0
CENTISPACE-1 GROUP 05 OBJECT G,2026-138G,2026-07-12T09:53:32.912736,14.16073930,.00086294,55.1383,187.9363,344.0005,16.0696,0,U,69588,999,359,-.11166998E-3,-.375E-5,0
SPACEMOBILE-008,2026-139A,2026-07-14T13:23:52.309248,15.12801501,.000505,52.9947,138.2992,54.8997,305.2467,0,U,69589,999,412,.12477E-4,-.8E-6,0
SPACEMOBILE-009,2026-139B,2026-07-14T13:26:37.988160,15.12694817,.0005292,52.9938,138.3056,50.8296,309.3164,0,U,69590,999,412,.14846E-4,-.39E-6,0
SPACEMOBILE-010,2026-139C,2026-07-14T13:31:00.865344,15.12526901,.000522,52.9945,138.3273,42.8328,317.3069,0,U,69591,999,413,.2307E-4,.106E-5,0
KUIPER-00423,2026-140A,2026-07-14T12:47:31.394400,15.38583270,.0013806,51.8807,266.2606,267.7609,92.1798,0,U,69592,999,544,.71466E-3,.27441E-3,0
KUIPER-00428,2026-140B,2026-07-14T12:08:28.813056,15.36939172,.00079041,51.8794,266.8179,28.6160,331.5259,0,U,69593,999,543,.19580628E-3,.6803E-4,0
KUIPER-00481,2026-140C,2026-07-14T13:03:19.567008,15.38012446,.001114,51.8782,266.3247,277.9906,81.9817,0,U,69594,999,544,.39047E-3,.14491E-3,0
KUIPER-00490,2026-140D,2026-07-14T13:17:21.200640,15.37951306,.00065847,51.8777,266.3835,337.2982,22.7712,0,U,69595,999,544,.32321832E-3,.11884E-3,0
KUIPER-00493,2026-140E,2026-07-14T12:15:57.113280,15.36612574,.0008156,51.8809,266.8514,36.1525,324.0012,0,U,69596,999,543,-.16518E-3,-.6391E-4,0
KUIPER-00496,2026-140F,2026-07-14T12:49:15.211776,15.34298372,.0010347,51.8787,266.9926,48.5793,311.6080,0,U,69597,999,543,.34168E-3,.11171E-3,0
